$$SOE
2460154.500000000, A.D. 2023-Jul-29 00:00:00.0000, -2.525106859953485E+07, 3.756141641954723E+08, 5.708287543157369E+06,
2460161.500000000, A.D. 2023-Aug-05 00:00:00.0000, -3.613172794087630E+07, 3.765506870055976E+08, 5.337476884706855E+06,
2460168.500000000, A.D. 2023-Aug-12 00:00:00.0000, -4.697999610939331E+07, 3.771496038213322E+08, 4.961879373835146E+06,
2460175.500000000, A.D. 2023-Aug-19 00:00:00.0000, -5.778673925372102E+07, 3.774151003784327E+08, 4.581894203163892E+06,
2460182.500000000, A.D. 2023-Aug-26 00:00:00.0000, -6.854310395495693E+07, 3.773514899614311E+08, 4.197912790366173E+06,
2460189.500000000, A.D. 2023-Sep-02 00:00:00.0000, -7.924050887554659E+07, 3.769632015051532E+08, 3.810318868103117E+06,
2460196.500000000, A.D. 2023-Sep-09 00:00:00.0000, -8.987063635578111E+07, 3.762547685493407E+08, 3.419488581039757E+06,
2460203.500000000, A.D. 2023-Sep-16 00:00:00.0000, -1.004254238345264E+08, 3.752308189332927E+08, 3.025790567274421E+06,
2460210.500000000, A.D. 2023-Sep-23 00:00:00.0000, -1.108970547173471E+08, 3.738960654641116E+08, 2.629586007231712E+06,
2460217.500000000, A.D. 2023-Sep-30 00:00:00.0000, -1.212779490665525E+08, 3.722552986996780E+08, 2.231228766433358E+06,
2460224.500000000, A.D. 2023-Oct-07 00:00:00.0000, -1.315607564950276E+08, 3.703133812575263E+08, 1.831065801596850E+06,
2460231.500000000, A.D. 2023-Oct-14 00:00:00.0000, -1.417383502452593E+08, 3.680752402864804E+08, 1.429437462486908E+06,
2460238.500000000, A.D. 2023-Oct-21 00:00:00.0000, -1.518038192487178E+08, 3.655458596554869E+08, 1.026677523559436E+06,
2460245.500000000, A.D. 2023-Oct-28 00:00:00.0000, -1.617504596108182E+08, 3.627302740828225E+08, 6.231132593134046E+05,
2460252.500000000, A.D. 2023-Nov-04 00:00:00.0000, -1.715717667841702E+08, 3.596335643988088E+08, 2.190656136753559E+05,
2460259.500000000, A.D. 2023-Nov-11 00:00:00.0000, -1.812614282621498E+08, 3.562608533043708E+08, -1.851506028181612E+05,
2460266.500000000, A.D. 2023-Nov-18 00:00:00.0000, -1.908133165804707E+08, 3.526173015248284E+08, -5.892265141875446E+05,
2460273.500000000, A.D. 2023-Nov-25 00:00:00.0000, -2.002214825586650E+08, 3.487081043457862E+08, -9.928589839103520E+05,
2460280.500000000, A.D. 2023-Dec-02 00:00:00.0000, -2.094801487575235E+08, 3.445384884845615E+08, -1.395750427318469E+06,
2460287.500000000, A.D. 2023-Dec-09 00:00:00.0000, -2.185837030803235E+08, 3.401137092052362E+08, -1.797608643555403E+06,
2460294.500000000, A.D. 2023-Dec-16 00:00:00.0000, -2.275266922370940E+08, 3.354390476617637E+08, -2.198146692689553E+06,
2460301.500000000, A.D. 2023-Dec-23 00:00:00.0000, -2.363038147294783E+08, 3.305198091337630E+08, -2.597082794349074E+06,
2460308.500000000, A.D. 2023-Dec-30 00:00:00.0000, -2.449099147004741E+08, 3.253613231859077E+08, -2.994140040187478E+06,
2460315.500000000, A.D. 2024-Jan-06 00:00:00.0000, -2.533399784210908E+08, 3.199689433743773E+08, -3.389045951711267E+06,
2460322.500000000, A.D. 2024-Jan-13 00:00:00.0000, -2.615891302350668E+08, 3.143480446729890E+08, -3.781532322612420E+06,
2460329.500000000, A.D. 2024-Jan-20 00:00:00.0000, -2.696526267355505E+08, 3.085040216806985E+08, -4.171335205906510E+06,
2460336.500000000, A.D. 2024-Jan-27 00:00:00.0000, -2.775258512025441E+08, 3.024422882462541E+08, -4.558194807281360E+06,
2460343.500000000, A.D. 2024-Feb-03 00:00:00.0000, -2.852043087258790E+08, 2.961682775460232E+08, -4.941855323497728E+06,
2460350.500000000, A.D. 2024-Feb-10 00:00:00.0000, -2.926836217321717E+08, 2.896874423068348E+08, -5.322064775308132E+06,
2460357.500000000, A.D. 2024-Feb-17 00:00:00.0000, -2.999595257744086E+08, 2.830052551654106E+08, -5.698574847130805E+06,
2460364.500000000, A.D. 2024-Feb-24 00:00:00.0000, -3.070278655469414E+08, 2.761272091647042E+08, -6.071140735751867E+06,
2460371.500000000, A.D. 2024-Mar-02 00:00:00.0000, -3.138845910961018E+08, 2.690588183423311E+08, -6.439521013597697E+06,
2460378.500000000, A.D. 2024-Mar-09 00:00:00.0000, -3.205257540873250E+08, 2.618056183379995E+08, -6.803477524640769E+06,
2460385.500000000, A.D. 2024-Mar-16 00:00:00.0000, -3.269475037327315E+08, 2.543731672083875E+08, -7.162775333235696E+06,
2460392.500000000, A.D. 2024-Mar-23 00:00:00.0000, -3.331460824818590E+08, 2.467670475503925E+08, -7.517182625911057E+06,
2460399.500000000, A.D. 2024-Mar-30 00:00:00.0000, -3.391178237169951E+08, 2.389928698992769E+08, -7.866470363093272E+06,
2460406.500000000, A.D. 2024-Apr-06 00:00:00.0000, -3.448591511963034E+08, 2.310562740297364E+08, -8.210411979855269E+06,
2460413.500000000, A.D. 2024-Apr-13 00:00:00.0000, -3.503665766885545E+08, 2.229629289893586E+08, -8.548783392748386E+06,
2460420.500000000, A.D. 2024-Apr-20 00:00:00.0000, -3.556366967497007E+08, 2.147185345314220E+08, -8.881363006348044E+06,
2460427.500000000, A.D. 2024-Apr-27 00:00:00.0000, -3.606661901607609E+08, 2.063288233799597E+08, -9.207931626625612E+06,
2460434.500000000, A.D. 2024-May-04 00:00:00.0000, -3.654518159399366E+08, 1.977995636200801E+08, -9.528272346932776E+06,
2460441.500000000, A.D. 2024-May-11 00:00:00.0000, -3.699904116904680E+08, 1.891365611073240E+08, -9.842170436719567E+06,
2460448.500000000, A.D. 2024-May-18 00:00:00.0000, -3.742788922028646E+08, 1.803456619131122E+08, -1.014941323863003E+07,
2460455.500000000, A.D. 2024-May-25 00:00:00.0000, -3.783142482882717E+08, 1.714327547950689E+08, -1.044979007673670E+07,
2460462.500000000, A.D. 2024-Jun-01 00:00:00.0000, -3.820935457852315E+08, 1.624037736311531E+08, -1.074309218600138E+07,
2460469.500000000, A.D. 2024-Jun-08 00:00:00.0000, -3.856139244960335E+08, 1.532646997912567E+08, -1.102911268731783E+07,
2460476.500000000, A.D. 2024-Jun-15 00:00:00.0000, -3.888725966560634E+08, 1.440215649879053E+08, -1.130764660009080E+07,
2460483.500000000, A.D. 2024-Jun-22 00:00:00.0000, -3.918668459454123E+08, 1.346804557773680E+08, -1.157849070404887E+07,
2460490.500000000, A.D. 2024-Jun-29 00:00:00.0000, -3.945940291712639E+08, 1.252475178872117E+08, -1.184144320477965E+07,
2460497.500000000, A.D. 2024-Jul-06 00:00:00.0000, -3.970515779832635E+08, 1.157289578984129E+08, -1.209630364788417E+07,
2460504.500000000, A.D. 2024-Jul-13 00:00:00.0000, -3.992369986758993E+08, 1.061310451042552E+08, -1.234287302952530E+07,
2460511.500000000, A.D. 2024-Jul-20 00:00:00.0000, -4.011478720686210E+08, 9.646011469000882E+07, -1.258095382738850E+07,
2460518.500000000, A.D. 2024-Jul-27 00:00:00.0000, -4.027818541286080E+08, 8.672257127115226E+07, -1.281034997096186E+07,
2460525.500000000, A.D. 2024-Aug-03 00:00:00.0000, -4.041366770705720E+08, 7.692489241418996E+07, -1.303086680725520E+07,
2460532.500000000, A.D. 2024-Aug-10 00:00:00.0000, -4.052101507726849E+08, 6.707363213286910E+07, -1.324231107753525E+07,
2460539.500000000, A.D. 2024-Aug-17 00:00:00.0000, -4.060001644668000E+08, 5.717542437580655E+07, -1.344449090761654E+07,
2460546.500000000, A.D. 2024-Aug-24 00:00:00.0000, -4.065046886841249E+08, 4.723698647569600E+07, -1.363721581646817E+07,
2460553.500000000, A.D. 2024-Aug-31 00:00:00.0000, -4.067217773539022E+08, 3.726512249135426E+07, -1.382029675971527E+07,
2460560.500000000, A.D. 2024-Sep-07 00:00:00.0000, -4.066495697050292E+08, 2.726672656342637E+07, -1.399354623250520E+07,
2460567.500000000, A.D. 2024-Sep-14 00:00:00.0000, -4.062862919004039E+08, 1.724878727502022E+07, -1.415677835936338E+07,
2460574.500000000, A.D. 2024-Sep-21 00:00:00.0000, -4.056302604472256E+08, 7.218393424087297E+06, -1.430980875228168E+07,
2460581.500000000, A.D. 2024-Sep-28 00:00:00.0000, -4.046798878870655E+08, -2.817262027361464E+06, -1.445245435725524E+07,
2460588.500000000, A.D. 2024-Oct-05 00:00:00.0000, -4.034336871126027E+08, -1.285087983232335E+07, -1.458453362661992E+07,
2460595.500000000, A.D. 2024-Oct-12 00:00:00.0000, -4.018902746846244E+08, -2.287505119441302E+07, -1.470586674081199E+07,
2460602.500000000, A.D. 2024-Oct-19 00:00:00.0000, -4.000483749141777E+08, -3.288225364370696E+07, -1.481627574155422E+07,
2460609.500000000, A.D. 2024-Oct-26 00:00:00.0000, -3.979068247610577E+08, -4.286484686897126E+07, -1.491558464011066E+07,
2460616.500000000, A.D. 2024-Nov-02 00:00:00.0000, -3.954645793120472E+08, -5.281506866918958E+07, -1.500361953750772E+07,
2460623.500000000, A.D. 2024-Nov-09 00:00:00.0000, -3.927207177627625E+08, -6.272503101929642E+07, -1.508020876486011E+07,
2460630.500000000, A.D. 2024-Nov-16 00:00:00.0000, -3.896744498978273E+08, -7.258671626774773E+07, -1.514518304709562E+07,
2460637.500000000, A.D. 2024-Nov-23 00:00:00.0000, -3.863251230439298E+08, -8.239197353620595E+07, -1.519837569948248E+07,
2460644.500000000, A.D. 2024-Nov-30 00:00:00.0000, -3.826722293098780E+08, -9.213251538682896E+07, -1.523962288064443E+07,
2460651.500000000, A.D. 2024-Dec-07 00:00:00.0000, -3.787154127171595E+08, -1.017999143619272E+08, -1.526876390727786E+07,
2460658.500000000, A.D. 2024-Dec-14 00:00:00.0000, -3.744544769325001E+08, -1.113855982004137E+08, -1.528564146850877E+07,
2460665.500000000, A.D. 2024-Dec-21 00:00:00.0000, -3.698893959445775E+08, -1.208808450045687E+08, -1.529010162997331E+07,
2460672.500000000, A.D. 2024-Dec-28 00:00:00.0000, -3.650203257391437E+08, -1.302767813614686E+08, -1.528199405276237E+07,
2460679.500000000, A.D. 2025-Jan-04 00:00:00.0000, -3.598476144027068E+08, -1.395643810815617E+08, -1.526117247275001E+07,
2460686.500000000, A.D. 2025-Jan-11 00:00:00.0000, -3.543718124994019E+08, -1.487344629357396E+08, -1.522749513856404E+07,
2460693.500000000, A.D. 2025-Jan-18 00:00:00.0000, -3.485936846591777E+08, -1.577776883573699E+08, -1.518082520030925E+07,
2460700.500000000, A.D. 2025-Jan-25 00:00:00.0000, -3.425142221564938E+08, -1.666845596384830E+08, -1.512103111186308E+07,
2460707.500000000, A.D. 2025-Feb-01 00:00:00.0000, -3.361346563137862E+08, -1.754454187097397E+08, -1.504798706846453E+07,
2460714.500000000, A.D. 2025-Feb-08 00:00:00.0000, -3.294564726933375E+08, -1.840504465484298E+08, -1.496157348505484E+07,
$$EOE